{
  "type": "FeatureCollection",
  "features": [
    {
      "type": "Feature",
      "properties": {
        "lake_name": "Lake Wellington",
        "part_number": 1
      },
      "geometry": {
        "type": "Polygon",
        "coordinates": [
          [
            [
              147.24780744300006,
              -38.062766807999935
            ],
            [
              147.24840250500006,
              -38.058773505999966
            ],
            [
              147.24960531800002,
              -38.05675981899998
            ],
            [
              147.25064231800002,
              -38.05267763099994
            ],
            [
              147.252788193,
              -38.050591818999976
            ],
            [
              147.25530850500002,
              -38.04920125599995
            ],
            [
              147.25556981800003,
              -38.04695344399994
            ],
            [
              147.2537726930001,
              -38.04295250599995
            ],
            [
              147.25874256800012,
              -38.04641500599996
            ],
            [
              147.25935088000006,
              -38.04842100599996
            ],
            [
              147.26445250500012,
              -38.05096200599996
            ],
            [
              147.26676081800008,
              -38.05008894399998
            ],
            [
              147.2675298800001,
              -38.04806544399997
            ],
            [
              147.26990069300007,
              -38.04627213099997
            ],
            [
              147.2753863800001,
              -38.04378800599994
            ],
            [
              147.277246568,
              -38.042941318999965
            ],
            [
              147.28246656800002,
              -38.04341650599997
            ],
            [
              147.2877891930001,
              -38.045727005999936
            ],
            [
              147.29540669300002,
              -38.05335194399999
            ],
            [
              147.298194318,
              -38.05465750599996
            ],
            [
              147.30581881800003,
              -38.05585925599996
            ],
            [
              147.31306300500012,
              -38.05619425599997
            ],
            [
              147.31573819300002,
              -38.05577225599996
            ],
            [
              147.3176713800001,
              -38.05386050599998
            ],
            [
              147.32291919300008,
              -38.051586130999965
            ],
            [
              147.33305581800005,
              -38.05046650599997
            ],
            [
              147.3376576930001,
              -38.047961130999965
            ],
            [
              147.34292750600002,
              -38.04676625599996
            ],
            [
              147.3551350680001,
              -38.045126005999975
            ],
            [
              147.35882756800004,
              -38.04461950599995
            ],
            [
              147.364197568,
              -38.04549350599996
            ],
            [
              147.376297818,
              -38.04561863099997
            ],
            [
              147.37884038100003,
              -38.04605363099995
            ],
            [
              147.3811775680001,
              -38.047528505999935
            ],
            [
              147.38387738100005,
              -38.04894194399998
            ],
            [
              147.38685681800007,
              -38.04914275599998
            ],
            [
              147.38936300600005,
              -38.04739831899997
            ],
            [
              147.39419931800012,
              -38.04621000599997
            ],
            [
              147.40620231800006,
              -38.05301744399998
            ],
            [
              147.40734831800012,
              -38.05366050599997
            ],
            [
              147.4110351930001,
              -38.05771025599995
            ],
            [
              147.4127650060001,
              -38.06203425599995
            ],
            [
              147.41336831800004,
              -38.06353500599994
            ],
            [
              147.41575369300006,
              -38.068169818999934
            ],
            [
              147.41751538100004,
              -38.07945563099997
            ],
            [
              147.41951356800007,
              -38.08640400599995
            ],
            [
              147.4203468810001,
              -38.08929625599996
            ],
            [
              147.4185000640001,
              -38.09510261899993
            ],
            [
              147.41748438000002,
              -38.09679545399996
            ],
            [
              147.41660862300012,
              -38.097561491999954
            ],
            [
              147.4168505440001,
              -38.09785182199994
            ],
            [
              147.41679776700005,
              -38.09793977999993
            ],
            [
              147.41206238100006,
              -38.09798750699997
            ],
            [
              147.41160256800003,
              -38.098564318999934
            ],
            [
              147.40864669300004,
              -38.10226394399996
            ],
            [
              147.40436469300005,
              -38.10620675699994
            ],
            [
              147.40249831800008,
              -38.108649818999936
            ],
            [
              147.3986693180001,
              -38.11365513199996
            ],
            [
              147.3933493180001,
              -38.11657394399998
            ],
            [
              147.39103188100012,
              -38.11682825699995
            ],
            [
              147.3883603810001,
              -38.11776544399993
            ],
            [
              147.3858595060001,
              -38.11974375699998
            ],
            [
              147.37563338100006,
              -38.12504925699994
            ],
            [
              147.37034606800012,
              -38.12515600699993
            ],
            [
              147.36268481800005,
              -38.12200475699996
            ],
            [
              147.36013956800002,
              -38.12156950699995
            ],
            [
              147.3492108810001,
              -38.128147818999935
            ],
            [
              147.34670481800003,
              -38.13000844399994
            ],
            [
              147.34439831800012,
              -38.13169381899996
            ],
            [
              147.33646606800005,
              -38.13433794399998
            ],
            [
              147.3340560680001,
              -38.13350325699997
            ],
            [
              147.33190450600011,
              -38.135410443999945
            ],
            [
              147.32952150500012,
              -38.13578200699993
            ],
            [
              147.32440988000008,
              -38.13857650699998
            ],
            [
              147.32194656800004,
              -38.13894044399996
            ],
            [
              147.31722388000003,
              -38.138178006999965
            ],
            [
              147.309637005,
              -38.13519300699994
            ],
            [
              147.30707288000008,
              -38.13344200699999
            ],
            [
              147.30376519300012,
              -38.129795943999966
            ],
            [
              147.3026998800001,
              -38.12601575699995
            ],
            [
              147.30036388000008,
              -38.12534094399996
            ],
            [
              147.29782931800003,
              -38.12559775699998
            ],
            [
              147.29271238,
              -38.12787750699994
            ],
            [
              147.28803656800005,
              -38.13077900699994
            ],
            [
              147.28574681800012,
              -38.13303944399996
            ],
            [
              147.2836113180001,
              -38.13690000699995
            ],
            [
              147.28336569300006,
              -38.13734625699993
            ],
            [
              147.28301306800006,
              -38.13774044399997
            ],
            [
              147.28155381800002,
              -38.13938113199998
            ],
            [
              147.28173056800006,
              -38.14139531899997
            ],
            [
              147.28406181800003,
              -38.14263800699996
            ],
            [
              147.2915731930001,
              -38.14504075699995
            ],
            [
              147.29390456800002,
              -38.146283256999936
            ],
            [
              147.2947261930001,
              -38.148113756999976
            ],
            [
              147.29374006800003,
              -38.15013250699997
            ],
            [
              147.29142938000007,
              -38.15101544399994
            ],
            [
              147.28868031800005,
              -38.151375256999984
            ],
            [
              147.283949193,
              -38.15072881899994
            ],
            [
              147.2787825680001,
              -38.14927994399994
            ],
            [
              147.27615938000008,
              -38.14855625699994
            ],
            [
              147.26856931800012,
              -38.144712943999934
            ],
            [
              147.26254756800006,
              -38.13919044399995
            ],
            [
              147.26006956800006,
              -38.13834644399998
            ],
            [
              147.25536769300004,
              -38.13852244399993
            ],
            [
              147.2542028800001,
              -38.13856744399993
            ],
            [
              147.25171806800006,
              -38.13749800699998
            ],
            [
              147.249406818,
              -38.13762344399999
            ],
            [
              147.24695481800006,
              -38.13948094399996
            ],
            [
              147.2392915680001,
              -38.14062713199996
            ],
            [
              147.23689188000003,
              -38.140474756999936
            ],
            [
              147.2349856930001,
              -38.13999619799995
            ],
            [
              147.235972714,
              -38.13964134299994
            ],
            [
              147.2325740010001,
              -38.13911846399998
            ],
            [
              147.22521881800003,
              -38.13465250699994
            ],
            [
              147.22905050500003,
              -38.12865300699997
            ],
            [
              147.23093656800006,
              -38.12768044399997
            ],
            [
              147.2316438800001,
              -38.12731575699996
            ],
            [
              147.23608560000002,
              -38.12460929499997
            ],
            [
              147.2375447500001,
              -38.11974545999993
            ],
            [
              147.23170814800005,
              -38.119259075999935
            ],
            [
              147.2208707650001,
              -38.120695342999966
            ],
            [
              147.22010169300006,
              -38.12046363199994
            ],
            [
              147.2191420680001,
              -38.11851813199996
            ],
            [
              147.2189405050001,
              -38.11449550699996
            ],
            [
              147.21906217800006,
              -38.10953140699996
            ],
            [
              147.21743918700008,
              -38.106452203999936
            ],
            [
              147.21642596700008,
              -38.10037287899996
            ],
            [
              147.21698383000012,
              -38.09174449999995
            ],
            [
              147.22047885000006,
              -38.08416134699996
            ],
            [
              147.22655817400005,
              -38.08112168399998
            ],
            [
              147.23314411,
              -38.07960185299993
            ],
            [
              147.2387168240001,
              -38.08061507399998
            ],
            [
              147.2442895380001,
              -38.08264151599997
            ],
            [
              147.24530275900008,
              -38.07504235999994
            ],
            [
              147.24682259000008,
              -38.06896303499997
            ],
            [
              147.24780744300006,
              -38.062766807999935
            ]
          ]
        ]
      }
    },
    {
      "type": "Feature",
      "properties": {
        "lake_name": "Lake Wellington",
        "part_number": 2
      },
      "geometry": {
        "type": "Polygon",
        "coordinates": [
          [
            [
              147.4168505440001,
              -38.09785182199994
            ],
            [
              147.41748438000002,
              -38.09679545399996
            ],
            [
              147.41856843900007,
              -38.095847180999954
            ],
            [
              147.4188783520001,
              -38.09548090699997
            ],
            [
              147.42152636900005,
              -38.09926378899996
            ],
            [
              147.425120106,
              -38.103803245999984
            ],
            [
              147.42814641100006,
              -38.10664040699993
            ],
            [
              147.43174014900012,
              -38.10739698299994
            ],
            [
              147.43571217400006,
              -38.10569468699998
            ],
            [
              147.43949505500007,
              -38.10191180499993
            ],
            [
              147.44289964900008,
              -38.09775063599994
            ],
            [
              147.44214307200002,
              -38.09018487299994
            ],
            [
              147.44138649600006,
              -38.08394311899997
            ],
            [
              147.44138649600006,
              -38.07751222099995
            ],
            [
              147.44308879300002,
              -38.072027042999935
            ],
            [
              147.4466825300001,
              -38.067109296999945
            ],
            [
              147.45462658100007,
              -38.06048925399995
            ],
            [
              147.4646512160001,
              -38.05368006799995
            ],
            [
              147.46521864900012,
              -38.055760652999936
            ],
            [
              147.46067919100005,
              -38.05821952599996
            ],
            [
              147.45292428400012,
              -38.06578528799997
            ],
            [
              147.4491414030001,
              -38.06900073799994
            ],
            [
              147.4463042420001,
              -38.07259447499996
            ],
            [
              147.4447910890001,
              -38.076377355999966
            ],
            [
              147.44403451300002,
              -38.08205167799997
            ],
            [
              147.44460194500004,
              -38.08659113599998
            ],
            [
              147.44516937700007,
              -38.09131973799998
            ],
            [
              147.44592595400002,
              -38.097183203999975
            ],
            [
              147.44365622500004,
              -38.10172266099994
            ],
            [
              147.43930591100002,
              -38.105505542999936
            ],
            [
              147.4343881650001,
              -38.10928842399994
            ],
            [
              147.43060528400008,
              -38.10985585599997
            ],
            [
              147.42720069100005,
              -38.10928842399994
            ],
            [
              147.42398524200007,
              -38.107018694999965
            ],
            [
              147.42133722500012,
              -38.10323581399996
            ],
            [
              147.4168505440001,
              -38.09785182199994
            ]
          ]
        ]
      }
    },
    {
      "type": "Feature",
      "properties": {
        "lake_name": "Lake Victoria",
        "part_number": 1
      },
      "geometry": {
        "type": "Polygon",
        "coordinates": [
          [
            [
              147.70477948100006,
              -37.96050554799996
            ],
            [
              147.7046208810001,
              -37.960628318999966
            ],
            [
              147.6896463180001,
              -37.96832144399997
            ],
            [
              147.6870575680001,
              -37.96909225599995
            ],
            [
              147.6844448810001,
              -37.96889075599995
            ],
            [
              147.682072381,
              -37.96966544399993
            ],
            [
              147.6822530060001,
              -37.97149875599996
            ],
            [
              147.67916831800005,
              -37.97302813099998
            ],
            [
              147.6613280680001,
              -37.97902675599994
            ],
            [
              147.65896031800003,
              -37.98026025599995
            ],
            [
              147.6542593810001,
              -37.98432950599994
            ],
            [
              147.65306281800008,
              -37.98617594399997
            ],
            [
              147.65177719300004,
              -37.99060931899993
            ],
            [
              147.65214531800007,
              -37.995140505999984
            ],
            [
              147.65138088100002,
              -37.99698625599996
            ],
            [
              147.64578288100006,
              -37.99957125599997
            ],
            [
              147.64077506800004,
              -38.003070443999945
            ],
            [
              147.640654884,
              -38.003125170999965
            ],
            [
              147.63990171600005,
              -38.00346813799996
            ],
            [
              147.63187081800004,
              -38.00712513099995
            ],
            [
              147.62687819300004,
              -38.01108281899997
            ],
            [
              147.62185256800012,
              -38.01349181899997
            ],
            [
              147.61947081800008,
              -38.01374313099996
            ],
            [
              147.61447006800006,
              -38.01334100599996
            ],
            [
              147.61180538100007,
              -38.01428300599997
            ],
            [
              147.60966756800008,
              -38.01660025599995
            ],
            [
              147.60913481800003,
              -38.018908943999975
            ],
            [
              147.61000831800004,
              -38.02331194399994
            ],
            [
              147.60960969300004,
              -38.025554443999965
            ],
            [
              147.60826981800005,
              -38.02758375599996
            ],
            [
              147.60689219300002,
              -38.028109755999935
            ],
            [
              147.60359556800006,
              -38.02935375599998
            ],
            [
              147.601155381,
              -38.03086694399997
            ],
            [
              147.59858081800007,
              -38.03244600599993
            ],
            [
              147.59364206800012,
              -38.035770630999934
            ],
            [
              147.5883148810001,
              -38.037779505999936
            ],
            [
              147.57741606800005,
              -38.04816100599993
            ],
            [
              147.57255650600007,
              -38.05217650599997
            ],
            [
              147.56746231800005,
              -38.05503525599994
            ],
            [
              147.56480306800006,
              -38.05586781899996
            ],
            [
              147.56218956800012,
              -38.05572675599996
            ],
            [
              147.5609358810001,
              -38.055420943999934
            ],
            [
              147.55971950600008,
              -38.05512313099996
            ],
            [
              147.55322356800002,
              -38.05667850599997
            ],
            [
              147.55052100600005,
              -38.055611443999965
            ],
            [
              147.54777731800004,
              -38.05598625599998
            ],
            [
              147.54527488100007,
              -38.05773375599995
            ],
            [
              147.54009281800006,
              -38.05973744399995
            ],
            [
              147.53733556800012,
              -38.060058255999934
            ],
            [
              147.529791068,
              -38.058977943999935
            ],
            [
              147.52715738100005,
              -38.05791775599994
            ],
            [
              147.52474438100012,
              -38.05598800599995
            ],
            [
              147.5222730060001,
              -38.05567194399998
            ],
            [
              147.5145713180001,
              -38.05896244399997
            ],
            [
              147.50991106800006,
              -38.06193544399997
            ],
            [
              147.5046273810001,
              -38.06634444399998
            ],
            [
              147.502993381,
              -38.068541005999975
            ],
            [
              147.50110888100005,
              -38.07275144399995
            ],
            [
              147.49607500600007,
              -38.07549750599998
            ],
            [
              147.49065381800006,
              -38.07624325599994
            ],
            [
              147.48794681800007,
              -38.07437300599997
            ],
            [
              147.48689931800004,
              -38.07237763099994
            ],
            [
              147.48457138100002,
              -38.07159825599996
            ],
            [
              147.47852288100012,
              -38.07434700599998
            ],
            [
              147.47339831800002,
              -38.075779255999976
            ],
            [
              147.46823388100006,
              -38.074680943999965
            ],
            [
              147.4659353180001,
              -38.07544975599996
            ],
            [
              147.46070069300004,
              -38.07905425599995
            ],
            [
              147.4582403810001,
              -38.07976325599998
            ],
            [
              147.45344400600004,
              -38.07966544399994
            ],
            [
              147.45010831800005,
              -38.078519005999965
            ],
            [
              147.44971281800008,
              -38.07657275599996
            ],
            [
              147.45201519300008,
              -38.07488544399996
            ],
            [
              147.45677806800006,
              -38.07420944399996
            ],
            [
              147.45870838100006,
              -38.072304505999966
            ],
            [
              147.4568678810001,
              -38.07008225599998
            ],
            [
              147.45654069300008,
              -38.06813450599998
            ],
            [
              147.45770831800007,
              -38.062129443999936
            ],
            [
              147.45781369300005,
              -38.06157775599996
            ],
            [
              147.46131231800007,
              -38.05787450599996
            ],
            [
              147.46648488100004,
              -38.05552331899997
            ],
            [
              147.46380706800005,
              -38.055498505999935
            ],
            [
              147.46381557300003,
              -38.05548147799993
            ],
            [
              147.46478906800007,
              -38.05353231899994
            ],
            [
              147.4637836930001,
              -38.05174300599998
            ],
            [
              147.46314106800003,
              -38.05126100599995
            ],
            [
              147.46545331800007,
              -38.04922200599998
            ],
            [
              147.46759488100008,
              -38.047195443999954
            ],
            [
              147.466879381,
              -38.04318425599996
            ],
            [
              147.46712706800008,
              -38.04106244399998
            ],
            [
              147.4658423180001,
              -38.03739644399997
            ],
            [
              147.4610098810001,
              -38.03388581899998
            ],
            [
              147.45945888100005,
              -38.03177450599998
            ],
            [
              147.457805881,
              -38.03176413099993
            ],
            [
              147.45663369300007,
              -38.03174363099998
            ],
            [
              147.45414981800002,
              -38.03067863099994
            ],
            [
              147.4523070680001,
              -38.02869044399995
            ],
            [
              147.45499556800007,
              -38.02872444399998
            ],
            [
              147.45794169300007,
              -38.02935644399997
            ],
            [
              147.46014519300002,
              -38.02982375599999
            ],
            [
              147.46410156800005,
              -38.02767813099996
            ],
            [
              147.46509956800003,
              -38.02713475599995
            ],
            [
              147.46616381800004,
              -38.028578755999945
            ],
            [
              147.4667338810001,
              -38.02935225599998
            ],
            [
              147.4673460680001,
              -38.03130294399995
            ],
            [
              147.46968006800012,
              -38.032307755999966
            ],
            [
              147.47243531800007,
              -38.03262825599995
            ],
            [
              147.47727719300008,
              -38.03201275599997
            ],
            [
              147.48210288100006,
              -38.030586943999936
            ],
            [
              147.48440556800006,
              -38.02964650599995
            ],
            [
              147.4867000060001,
              -38.02812994399994
            ],
            [
              147.4884781930001,
              -38.02616463099997
            ],
            [
              147.4909908180001,
              -38.02470631899996
            ],
            [
              147.50070181800004,
              -38.01628550599997
            ],
            [
              147.50226100600003,
              -38.01426175599994
            ],
            [
              147.50647388100003,
              -38.01060525599996
            ],
            [
              147.5169851930001,
              -38.00671450599998
            ],
            [
              147.52209900600008,
              -38.00546100599996
            ],
            [
              147.5163243180001,
              -38.01102525599998
            ],
            [
              147.51141656800007,
              -38.01199481899994
            ],
            [
              147.50682881800003,
              -38.01433550599995
            ],
            [
              147.50279238100006,
              -38.02051044399997
            ],
            [
              147.49994331800008,
              -38.02277781899994
            ],
            [
              147.49830819300007,
              -38.02492025599997
            ],
            [
              147.49826038100002,
              -38.02686681899996
            ],
            [
              147.49945581800011,
              -38.02886794399996
            ],
            [
              147.50202069300008,
              -38.03062394399996
            ],
            [
              147.50470981800004,
              -38.03134125599996
            ],
            [
              147.50780900600012,
              -38.03039231899993
            ],
            [
              147.50966038100012,
              -38.02825425599997
            ],
            [
              147.5123048810001,
              -38.02633325599993
            ],
            [
              147.5176505060001,
              -38.02582250599994
            ],
            [
              147.52049300600004,
              -38.026364943999965
            ],
            [
              147.53111956800012,
              -38.02975744399998
            ],
            [
              147.5364093180001,
              -38.02993150599997
            ],
            [
              147.53928450600006,
              -38.02910381899994
            ],
            [
              147.54166038100004,
              -38.028331943999945
            ],
            [
              147.54427056800012,
              -38.02807725599996
            ],
            [
              147.54927481800007,
              -38.02888750599993
            ],
            [
              147.55427769300002,
              -38.02900400599998
            ],
            [
              147.55554181800005,
              -38.027040005999936
            ],
            [
              147.55547588100012,
              -38.02285325599996
            ],
            [
              147.55602231800003,
              -38.02055350599994
            ],
            [
              147.5573638180001,
              -38.01853381899997
            ],
            [
              147.55986238100002,
              -38.01672300599995
            ],
            [
              147.5653363810001,
              -38.01535175599997
            ],
            [
              147.57641300600005,
              -38.01110125599996
            ],
            [
              147.58434069300006,
              -38.00895463099994
            ],
            [
              147.591874318,
              -38.00468150599994
            ],
            [
              147.6000813180001,
              -38.00241963099995
            ],
            [
              147.6014273180001,
              -38.00057044399995
            ],
            [
              147.60001781800008,
              -37.99869200599994
            ],
            [
              147.5988243810001,
              -37.99680900599998
            ],
            [
              147.5984388810001,
              -37.99491700599998
            ],
            [
              147.59992138100006,
              -37.99306481899998
            ],
            [
              147.60211688100003,
              -37.99174625599994
            ],
            [
              147.60264056800008,
              -37.99142844399995
            ],
            [
              147.60509431800006,
              -37.99065350599994
            ],
            [
              147.6074140060001,
              -37.99091731899995
            ],
            [
              147.61668988100007,
              -37.98324444399998
            ],
            [
              147.62373069300008,
              -37.97963781899995
            ],
            [
              147.6245796930001,
              -37.97919550599994
            ],
            [
              147.63032600600002,
              -37.97695944399993
            ],
            [
              147.63305081800002,
              -37.97583563099994
            ],
            [
              147.6347453180001,
              -37.97358194399993
            ],
            [
              147.635287381,
              -37.97156125599997
            ],
            [
              147.63704695500007,
              -37.96987273199994
            ],
            [
              147.6374309480001,
              -37.96950423699997
            ],
            [
              147.63847331800002,
              -37.96850394399996
            ],
            [
              147.64133731800007,
              -37.96576000599998
            ],
            [
              147.64196431800008,
              -37.96543975599997
            ],
            [
              147.64362756800006,
              -37.96459175599995
            ],
            [
              147.6484863810001,
              -37.964932630999954
            ],
            [
              147.65319681800008,
              -37.96115163099995
            ],
            [
              147.6539588810001,
              -37.95925194399996
            ],
            [
              147.65565619300003,
              -37.95710600599995
            ],
            [
              147.6581525680001,
              -37.955356318999975
            ],
            [
              147.66066969300005,
              -37.95481300599994
            ],
            [
              147.66300300600005,
              -37.95548075599993
            ],
            [
              147.66547669300007,
              -37.956253318999984
            ],
            [
              147.66815719300007,
              -37.95645375599997
            ],
            [
              147.67063231800012,
              -37.95757744399998
            ],
            [
              147.67317319300005,
              -37.95800600599995
            ],
            [
              147.675164568,
              -37.95614144399997
            ],
            [
              147.680119568,
              -37.95413700599994
            ],
            [
              147.6851718810001,
              -37.95356244399994
            ],
            [
              147.69024238100008,
              -37.95379775599997
            ],
            [
              147.690087381,
              -37.94955000599998
            ],
            [
              147.6894706930001,
              -37.94760963099998
            ],
            [
              147.6867200060001,
              -37.94734831899996
            ],
            [
              147.68206238100004,
              -37.94969731899994
            ],
            [
              147.67249481800002,
              -37.95278844399997
            ],
            [
              147.66441688100008,
              -37.953683318999936
            ],
            [
              147.66677656800005,
              -37.95256694399996
            ],
            [
              147.6720386930001,
              -37.95118650599994
            ],
            [
              147.67712119300006,
              -37.94831494399995
            ],
            [
              147.67881700600003,
              -37.94646581899997
            ],
            [
              147.68156906800004,
              -37.946141943999976
            ],
            [
              147.689586006,
              -37.94204075599998
            ],
            [
              147.6974067440001,
              -37.93925616599995
            ],
            [
              147.70477948100006,
              -37.96050554799996
            ]
          ]
        ]
      }
    },
    {
      "type": "Feature",
      "properties": {
        "lake_name": "Lake King North",
        "part_number": 1
      },
      "geometry": {
        "type": "Polygon",
        "coordinates": [
          [
            [
              147.7204608180001,
              -37.89938544399996
            ],
            [
              147.7199913810001,
              -37.89744175599998
            ],
            [
              147.72005306800008,
              -37.89325200599996
            ],
            [
              147.71754338100004,
              -37.89454400599993
            ],
            [
              147.71730119300005,
              -37.89661225599997
            ],
            [
              147.71450431800008,
              -37.89813600599996
            ],
            [
              147.70873706800012,
              -37.898557005999976
            ],
            [
              147.70410888100002,
              -37.89888875599996
            ],
            [
              147.69908369300003,
              -37.90072450599996
            ],
            [
              147.69656338100003,
              -37.90080944399995
            ],
            [
              147.69385106800007,
              -37.899061005999954
            ],
            [
              147.68839569300007,
              -37.89688925599995
            ],
            [
              147.68589838100002,
              -37.89479350599999
            ],
            [
              147.68383606800012,
              -37.88902200599995
            ],
            [
              147.68423106800003,
              -37.88706750599994
            ],
            [
              147.68636400600008,
              -37.885091443999954
            ],
            [
              147.68876000600005,
              -37.88535194399998
            ],
            [
              147.6912730680001,
              -37.88445681899998
            ],
            [
              147.69303419300002,
              -37.882263818999945
            ],
            [
              147.70575188100008,
              -37.878270130999965
            ],
            [
              147.7082178810001,
              -37.87858263099997
            ],
            [
              147.71068538100008,
              -37.87924644399993
            ],
            [
              147.71311650600012,
              -37.878298755999936
            ],
            [
              147.7155450680001,
              -37.876666443999966
            ],
            [
              147.7174276930001,
              -37.87285800599994
            ],
            [
              147.71999631800009,
              -37.871330505999936
            ],
            [
              147.72230131800006,
              -37.87067375599997
            ],
            [
              147.73285138100005,
              -37.86315163099994
            ],
            [
              147.7354323180001,
              -37.861974818999954
            ],
            [
              147.7379455680001,
              -37.86142994399995
            ],
            [
              147.74299869300012,
              -37.86136631899996
            ],
            [
              147.7457073180001,
              -37.86053750599996
            ],
            [
              147.74490156800005,
              -37.858763943999975
            ],
            [
              147.73695688100008,
              -37.85896700599994
            ],
            [
              147.73436431800008,
              -37.85951375599996
            ],
            [
              147.7237998180001,
              -37.86600950599996
            ],
            [
              147.7210716930001,
              -37.866901318999965
            ],
            [
              147.71826369300004,
              -37.86716444399997
            ],
            [
              147.7159128180001,
              -37.86564250599997
            ],
            [
              147.71349588100009,
              -37.867274443999975
            ],
            [
              147.71353538100004,
              -37.869282005999935
            ],
            [
              147.7123328810001,
              -37.87119225599997
            ],
            [
              147.70976938100011,
              -37.87316981899994
            ],
            [
              147.7072493180001,
              -37.87354300599998
            ],
            [
              147.68706981800003,
              -37.88043675599994
            ],
            [
              147.68218350600011,
              -37.88169200599998
            ],
            [
              147.67907469300008,
              -37.88204663099998
            ],
            [
              147.6765588180001,
              -37.88233350599995
            ],
            [
              147.67134800600002,
              -37.88216381899997
            ],
            [
              147.66654781800003,
              -37.88014700599996
            ],
            [
              147.6617068810001,
              -37.88014850599996
            ],
            [
              147.65908081800012,
              -37.87885694399995
            ],
            [
              147.65438069300012,
              -37.87454963099998
            ],
            [
              147.65369550600008,
              -37.87045794399995
            ],
            [
              147.6547325680001,
              -37.86599400599994
            ],
            [
              147.65479581800005,
              -37.86174125599996
            ],
            [
              147.65490531800003,
              -37.85973025599998
            ],
            [
              147.6549750060001,
              -37.85565744399997
            ],
            [
              147.6558031930001,
              -37.85341394399995
            ],
            [
              147.65823006800008,
              -37.85171981899998
            ],
            [
              147.66098506800006,
              -37.852756443999965
            ],
            [
              147.6637715060001,
              -37.85481900599996
            ],
            [
              147.66987688100005,
              -37.86094063099995
            ],
            [
              147.67258331800008,
              -37.86258150599997
            ],
            [
              147.674828068,
              -37.86685381899997
            ],
            [
              147.67969156800007,
              -37.86405013099994
            ],
            [
              147.6822240680001,
              -37.86401944399995
            ],
            [
              147.68503300600003,
              -37.863468943999976
            ],
            [
              147.69149788100003,
              -37.85754775599997
            ],
            [
              147.69267256800003,
              -37.85517900599996
            ],
            [
              147.6948001930001,
              -37.853085755999984
            ],
            [
              147.70010369300007,
              -37.85055931899996
            ],
            [
              147.71322000600003,
              -37.848915630999954
            ],
            [
              147.71542138100006,
              -37.847000443999946
            ],
            [
              147.7164665680001,
              -37.845147818999976
            ],
            [
              147.71845231800012,
              -37.84323750599998
            ],
            [
              147.72285869300003,
              -37.846621443999936
            ],
            [
              147.7253890060001,
              -37.84716625599998
            ],
            [
              147.72691400600002,
              -37.84809463099998
            ],
            [
              147.72780556800012,
              -37.848632443999975
            ],
            [
              147.73033038100004,
              -37.84871800599996
            ],
            [
              147.73275538100006,
              -37.84702244399995
            ],
            [
              147.73507381800005,
              -37.84705863099998
            ],
            [
              147.7351078810001,
              -37.84705781899993
            ],
            [
              147.73510282900008,
              -37.84708927799994
            ],
            [
              147.73474781800007,
              -37.84929994399994
            ],
            [
              147.73723906800012,
              -37.85093525599996
            ],
            [
              147.73967831800007,
              -37.849932818999946
            ],
            [
              147.74188288100004,
              -37.851799943999936
            ],
            [
              147.74264056800007,
              -37.85385394399998
            ],
            [
              147.74496831800002,
              -37.85474531899996
            ],
            [
              147.747430881,
              -37.85529125599993
            ],
            [
              147.74862306800003,
              -37.85710994399994
            ],
            [
              147.7533163180001,
              -37.85654075599996
            ],
            [
              147.75522606800007,
              -37.85840550599994
            ],
            [
              147.75653456800012,
              -37.85853700599995
            ],
            [
              147.76043688100003,
              -37.85892294399997
            ],
            [
              147.76274469300006,
              -37.858661505999976
            ],
            [
              147.77372156800004,
              -37.85480050599995
            ],
            [
              147.78118688100005,
              -37.85391281899996
            ],
            [
              147.78229369300004,
              -37.85377850599997
            ],
            [
              147.78531931800012,
              -37.853283630999954
            ],
            [
              147.78770006800005,
              -37.852857943999936
            ],
            [
              147.788739006,
              -37.850887943999965
            ],
            [
              147.78937581800005,
              -37.85060250599997
            ],
            [
              147.79001063700002,
              -37.85030722899995
            ],
            [
              147.7901688810001,
              -37.85023350599994
            ],
            [
              147.7910278810001,
              -37.849833943999954
            ],
            [
              147.79380456800004,
              -37.851173005999954
            ],
            [
              147.79463669300003,
              -37.85305375599995
            ],
            [
              147.79254931800006,
              -37.857039318999966
            ],
            [
              147.78879550600004,
              -37.860821130999966
            ],
            [
              147.78774238100004,
              -37.862719443999936
            ],
            [
              147.78850131800004,
              -37.86360431899993
            ],
            [
              147.78863933900004,
              -37.86376519099997
            ],
            [
              147.7894535680001,
              -37.86471444399996
            ],
            [
              147.7918583180001,
              -37.86611650599997
            ],
            [
              147.79435031800006,
              -37.86441813099998
            ],
            [
              147.79568550600004,
              -37.86217075599996
            ],
            [
              147.79738100600002,
              -37.86013994399997
            ],
            [
              147.80877881800006,
              -37.85604050599994
            ],
            [
              147.81108619300005,
              -37.85577825599995
            ],
            [
              147.81355806800002,
              -37.856556755999975
            ],
            [
              147.81590581800003,
              -37.85824794399997
            ],
            [
              147.8195003180001,
              -37.864628755999945
            ],
            [
              147.81944338100004,
              -37.87237581899996
            ],
            [
              147.81948769300004,
              -37.87472550599995
            ],
            [
              147.819504068,
              -37.879030443999966
            ],
            [
              147.81843731800006,
              -37.88323500599995
            ],
            [
              147.818953318,
              -37.88752794399994
            ],
            [
              147.7204608180001,
              -37.89938544399996
            ]
          ]
        ]
      }
    },
    {
      "type": "Feature",
      "properties": {
        "lake_name": "Lake King South",
        "part_number": 1
      },
      "geometry": {
        "type": "Polygon",
        "coordinates": [
          [
            [
              147.8229529140001,
              -37.88863349799993
            ],
            [
              147.82206669800007,
              -37.91327144099995
            ],
            [
              147.8176788180001,
              -37.917271755999934
            ],
            [
              147.81626881800003,
              -37.919349943999975
            ],
            [
              147.81656100600003,
              -37.92313481899998
            ],
            [
              147.81890306800005,
              -37.92402444399994
            ],
            [
              147.82157788100005,
              -37.92439250599995
            ],
            [
              147.82662700600008,
              -37.92352375599995
            ],
            [
              147.82871800600003,
              -37.92366250599997
            ],
            [
              147.8289408810001,
              -37.92367525599997
            ],
            [
              147.82970188100012,
              -37.92572844399996
            ],
            [
              147.82720181800005,
              -37.92724763099994
            ],
            [
              147.82490081800006,
              -37.92773525599995
            ],
            [
              147.81492300600007,
              -37.93503581899995
            ],
            [
              147.80990738100002,
              -37.93711025599998
            ],
            [
              147.79975350600012,
              -37.93924394399994
            ],
            [
              147.79513338100003,
              -37.93947081899995
            ],
            [
              147.79288006800004,
              -37.93909213099994
            ],
            [
              147.79229481800007,
              -37.93898894399996
            ],
            [
              147.7871263180001,
              -37.93704000599996
            ],
            [
              147.7843833810001,
              -37.935627943999975
            ],
            [
              147.78223188100003,
              -37.93451694399994
            ],
            [
              147.77768456800004,
              -37.93847944399994
            ],
            [
              147.77530931800004,
              -37.939427130999945
            ],
            [
              147.77055138100002,
              -37.94022381899998
            ],
            [
              147.76827269300009,
              -37.94162850599997
            ],
            [
              147.76809156800005,
              -37.94347025599996
            ],
            [
              147.7692788810001,
              -37.94540575599996
            ],
            [
              147.7685998810001,
              -37.947313005999945
            ],
            [
              147.76683119300003,
              -37.94928213099996
            ],
            [
              147.76453881800012,
              -37.950633005999975
            ],
            [
              147.76443381800004,
              -37.95128400599998
            ],
            [
              147.76421588100004,
              -37.95264025599994
            ],
            [
              147.7653060680001,
              -37.95653244399995
            ],
            [
              147.76762269300002,
              -37.95673013099997
            ],
            [
              147.77017669300005,
              -37.95779581899996
            ],
            [
              147.77270581800008,
              -37.95759200599997
            ],
            [
              147.7834010680001,
              -37.95343944399997
            ],
            [
              147.7933893180001,
              -37.95016725599993
            ],
            [
              147.79576419300008,
              -37.94950744399995
            ],
            [
              147.8037271930001,
              -37.94624644399994
            ],
            [
              147.81425038100008,
              -37.94095125599995
            ],
            [
              147.8327218810001,
              -37.93538294399997
            ],
            [
              147.8351773810001,
              -37.93535975599997
            ],
            [
              147.83774556800006,
              -37.93354150599998
            ],
            [
              147.8428528810001,
              -37.93210313099996
            ],
            [
              147.84815631800006,
              -37.92985825599993
            ],
            [
              147.86265781800012,
              -37.92496681899996
            ],
            [
              147.86842900600004,
              -37.92425875599997
            ],
            [
              147.87346231900003,
              -37.922703755999976
            ],
            [
              147.87611288100004,
              -37.92157613099994
            ],
            [
              147.8833355690001,
              -37.91786875599996
            ],
            [
              147.89633419400002,
              -37.913910630999965
            ],
            [
              147.9093860690001,
              -37.90903113099995
            ],
            [
              147.9087765690001,
              -37.91087450599997
            ],
            [
              147.90413138100007,
              -37.91329500599994
            ],
            [
              147.880074819,
              -37.92112794399998
            ],
            [
              147.87269756900002,
              -37.92409144399994
            ],
            [
              147.85999738100008,
              -37.92878725599997
            ],
            [
              147.85236731800012,
              -37.93083700599993
            ],
            [
              147.8425543180001,
              -37.934974505999946
            ],
            [
              147.8347928180001,
              -37.93748550599997
            ],
            [
              147.8268208180001,
              -37.94045150599993
            ],
            [
              147.81915881800012,
              -37.94410313099996
            ],
            [
              147.81432681800004,
              -37.94474125599993
            ],
            [
              147.79711938100002,
              -37.95195200599994
            ],
            [
              147.7947483810001,
              -37.95301713099997
            ],
            [
              147.79166706800004,
              -37.95454944399995
            ],
            [
              147.78669481800011,
              -37.95541494399998
            ],
            [
              147.7819110060001,
              -37.95856350599996
            ],
            [
              147.77911169300012,
              -37.95974650599993
            ],
            [
              147.77404500600005,
              -37.96325275599997
            ],
            [
              147.7667860680001,
              -37.96535125599996
            ],
            [
              147.76209506800012,
              -37.96614150599993
            ],
            [
              147.75949231800007,
              -37.96653150599997
            ],
            [
              147.75473238100005,
              -37.96732763099993
            ],
            [
              147.752205881,
              -37.96730575599997
            ],
            [
              147.7474398810001,
              -37.96397663099998
            ],
            [
              147.7462503810001,
              -37.965940943999954
            ],
            [
              147.74678488100005,
              -37.96776575599995
            ],
            [
              147.7444785680001,
              -37.96785575599995
            ],
            [
              147.7409522480001,
              -37.97206265699998
            ],
            [
              147.740728568,
              -37.97232950599994
            ],
            [
              147.73952181800007,
              -37.97376263099994
            ],
            [
              147.7379808180001,
              -37.97607731899996
            ],
            [
              147.73766131800005,
              -37.97825544399996
            ],
            [
              147.73681806800005,
              -37.97850925599994
            ],
            [
              147.735296693,
              -37.97978750599998
            ],
            [
              147.73242731800008,
              -37.98096213099996
            ],
            [
              147.72998406800002,
              -37.98197363099996
            ],
            [
              147.72917181800003,
              -37.98216350599995
            ],
            [
              147.72870056800002,
              -37.98295825599996
            ],
            [
              147.72735806800006,
              -37.98480875599995
            ],
            [
              147.72252438100008,
              -37.98549713099993
            ],
            [
              147.72023431800005,
              -37.98696431899998
            ],
            [
              147.71918719300004,
              -37.98880794399997
            ],
            [
              147.71674550600005,
              -37.98987300599998
            ],
            [
              147.71541331800006,
              -37.99201150599998
            ],
            [
              147.71284019300003,
              -37.99352994399993
            ],
            [
              147.7105320060001,
              -37.99389850599994
            ],
            [
              147.70785038100007,
              -37.99370813099995
            ],
            [
              147.7060763180001,
              -37.99188463099995
            ],
            [
              147.70586756800003,
              -37.99112381899994
            ],
            [
              147.7064866930001,
              -37.990105255999936
            ],
            [
              147.70721076300003,
              -37.989032979999934
            ],
            [
              147.70825556800003,
              -37.990281005999975
            ],
            [
              147.7082900680001,
              -37.99121825599997
            ],
            [
              147.70925806800005,
              -37.99175850599994
            ],
            [
              147.7104423180001,
              -37.99173131899994
            ],
            [
              147.7123370060001,
              -37.99168750599995
            ],
            [
              147.71350038100002,
              -37.99109800599996
            ],
            [
              147.71465006800008,
              -37.99013344399998
            ],
            [
              147.71603656800005,
              -37.989163505999954
            ],
            [
              147.71741600600012,
              -37.98800600599998
            ],
            [
              147.71854481800003,
              -37.98647925599994
            ],
            [
              147.72016788100007,
              -37.98550363099997
            ],
            [
              147.72202081800003,
              -37.98433525599995
            ],
            [
              147.72317719300008,
              -37.98355800599995
            ],
            [
              147.7250715680001,
              -37.983514130999936
            ],
            [
              147.7262348810001,
              -37.982924443999934
            ],
            [
              147.72737719300005,
              -37.98177231899996
            ],
            [
              147.72782306800002,
              -37.98101150599996
            ],
            [
              147.72992650600008,
              -37.98021244399996
            ],
            [
              147.73132638100003,
              -37.97961700599996
            ],
            [
              147.73315819300012,
              -37.97788625599998
            ],
            [
              147.73498288100006,
              -37.97596781899995
            ],
            [
              147.73636881800007,
              -37.974997505999966
            ],
            [
              147.73727406800003,
              -37.973850943999935
            ],
            [
              147.73819331800007,
              -37.97307925599995
            ],
            [
              147.73814456800005,
              -37.97176725599997
            ],
            [
              147.7387190060001,
              -37.97071944399994
            ],
            [
              147.7380576930001,
              -37.97018950599994
            ],
            [
              147.73364688100003,
              -37.97005800599993
            ],
            [
              147.72901081800012,
              -37.97179150599993
            ],
            [
              147.7264910680001,
              -37.97335863099994
            ],
            [
              147.72135288800007,
              -37.97654891899998
            ],
            [
              147.72068798500004,
              -37.97502825699996
            ],
            [
              147.72123881800007,
              -37.97472781899995
            ],
            [
              147.72334256800002,
              -37.97079263099994
            ],
            [
              147.72339906800005,
              -37.97068775599996
            ],
            [
              147.72271506800007,
              -37.96880313099996
            ],
            [
              147.7220330680001,
              -37.966972505999934
            ],
            [
              147.72032606800008,
              -37.96480544399998
            ],
            [
              147.71797856800004,
              -37.96346350599998
            ],
            [
              147.7148676930001,
              -37.95931131899994
            ],
            [
              147.71244831800004,
              -37.95755675599997
            ],
            [
              147.7101313810001,
              -37.95734900599996
            ],
            [
              147.70733088100008,
              -37.95853044399996
            ],
            [
              147.70496279000008,
              -37.96036364799994
            ],
            [
              147.69684719300005,
              -37.939455419999945
            ],
            [
              147.70223850600007,
              -37.937535443999934
            ],
            [
              147.7076640680001,
              -37.93786994399994
            ],
            [
              147.70987031800007,
              -37.93600875599998
            ],
            [
              147.71241438100003,
              -37.928807630999984
            ],
            [
              147.71360856800004,
              -37.92696075599997
            ],
            [
              147.71392538100008,
              -37.925061943999935
            ],
            [
              147.7089603180001,
              -37.926095130999954
            ],
            [
              147.70415738100007,
              -37.92442231899997
            ],
            [
              147.7028843810001,
              -37.922262943999954
            ],
            [
              147.70055269300008,
              -37.921307755999976
            ],
            [
              147.69789556800004,
              -37.92202613099994
            ],
            [
              147.69548900600012,
              -37.92119875599997
            ],
            [
              147.6835898070001,
              -37.92531473799994
            ],
            [
              147.68342399000005,
              -37.92527262599998
            ],
            [
              147.68827238100005,
              -37.92191325599998
            ],
            [
              147.6934435060001,
              -37.91966931899998
            ],
            [
              147.69617800600008,
              -37.91889513099994
            ],
            [
              147.70166650600004,
              -37.91912044399993
            ],
            [
              147.70682669300004,
              -37.920316818999936
            ],
            [
              147.71192388100008,
              -37.92227094399993
            ],
            [
              147.72168456800011,
              -37.92209944399997
            ],
            [
              147.72405938100007,
              -37.92144100599995
            ],
            [
              147.72687006800004,
              -37.91750294399998
            ],
            [
              147.72878538100008,
              -37.91180225599993
            ],
            [
              147.7310653180001,
              -37.90982181899994
            ],
            [
              147.73161106800012,
              -37.90798075599997
            ],
            [
              147.73023138100007,
              -37.90386963099997
            ],
            [
              147.72781081800008,
              -37.90234950599995
            ],
            [
              147.72323138100012,
              -37.90104150599996
            ],
            [
              147.8229529140001,
              -37.88863349799993
            ]
          ]
        ]
      }
    }
  ]
}